QZS-1R                  
1 49336U 21096A   23260.26107199 -.00000217  00000+0  00000+0 0  9990
2 49336  35.3777  94.7173 0743923 269.5488 219.7054  1.00289061  6944
